LEMUR-1                 
1 40044U 14033AL  26065.94298780  .00002825  00000+0  33212-3 0  9999
2 40044  97.7713 218.1358 0049650  54.6721 305.9121 14.84782165630292
LEMUR-2-GREENBERG       
1 42837U 17042N   26066.03884867  .00021618  00000+0  79527-3 0  9992
2 42837  97.3773 247.4022 0009292  12.9329 347.2147 15.27852187472772
LEMUR-2-ANDIS           
1 42838U 17042P   26065.48647488  .00026513  00000+0  90174-3 0  9997
2 42838  97.3650 246.7461 0009284  14.8782 345.2730 15.30376816472726
LEMUR-2-MONSON          
1 42839U 17042Q   26066.03407052  .00018703  00000+0  75344-3 0  9995
2 42839  97.4030 247.5029 0006714   2.2404 357.8863 15.24880241472581
LEMUR-2-FURIAUS         
1 42840U 17042R   26065.94543651  .00026290  00000+0  10194-2 0  9993
2 42840  97.3744 245.5228 0007640  66.9148 293.2895 15.26080661472593
LEMUR-2-PETERG          
1 42841U 17042S   26066.06177837  .00022631  00000+0  79305-3 0  9992
2 42841  97.3972 251.2508 0003779 351.1685   8.9488 15.29471078472808
LEMUR-2-DEMBITZ         
1 42842U 17042T   26065.98459671  .00020467  00000+0  77762-3 0  9992
2 42842  97.3801 248.4619 0007063  25.7278 334.4311 15.26813008472737
LEMUR-2-ZACHARY         
1 42845U 17042W   26065.99152980  .00053593  00000+0  12609-2 0  9993
2 42845  97.3654 256.0601 0003757  26.6218 333.5221 15.41787303473413
LEMUR-2-JIN-LUEN        
1 43182U 18014C   26065.87383420  .00214135  00000+0  12652-2 0  9999
2 43182  97.5452 355.8878 0002385 139.1593 220.9852 15.77518952445028
LEMUR-2-KADI            
1 43184U 18014E   26065.85345716  .00099116  00000+0  10634-2 0  9993
2 43184  97.4711 350.3612 0000786  96.7208 263.4140 15.63478714444945
LEMUR-2-AMANDA-SVANTE   
1 48269U 21034B   26066.15753707  .00031441  00000+0  11410-2 0  9995
2 48269  97.5828 142.1958 0002390 214.3504 145.7581 15.28260417265441
LEMUR-2-SPECIAL-K       
1 48273U 21034F   26066.19072832  .00080683  00000+0  17024-2 0  9996
2 48273  97.5711 147.3940 0001575 219.3357 140.7777 15.44921568265856
LEMUR-2-EMBRIONOVIS     
1 56970U 23084AQ  26065.93248512  .00009876  00000+0  29685-3 0  9999
2 56970  97.6127 206.5242 0008474 323.5835  36.4830 15.34586571151987
LEMUR-2-MANO            
1 57390U 23100E   26066.00740439  .00140474  00000+0  17189-2 0  9994
2 57390  99.4549  87.6496 0001373  68.0046 292.1350 15.59903610146062
LEMUR-2-DEVERILL-M-T    
1 57391U 23100F   26065.97714372  .00031457  00000+0  93895-3 0  9996
2 57391  99.4579  75.6543 0008343  35.9502 324.2295 15.34552459145541
LEMUR-2-BASS            
1 58259U 23174D   26066.16036655  .00019926  00000+0  50618-3 0  9997
2 58259  97.3883 149.7008 0008068 171.0394 189.0997 15.39645207129642
