[{"OBJECT_NAME":"LEMUR-1","OBJECT_ID":"2014-033AL","EPOCH":"2026-03-06T22:37:54.145920","MEAN_MOTION":14.84782165,"ECCENTRICITY":0.004965,"INCLINATION":97.7713,"RA_OF_ASC_NODE":218.1358,"ARG_OF_PERICENTER":54.6721,"MEAN_ANOMALY":305.9121,"EPHEMERIS_TYPE":0,"CLASSIFICATION_TYPE":"U","NORAD_CAT_ID":40044,"ELEMENT_SET_NO":999,"REV_AT_EPOCH":63029,"BSTAR":0.00033212,"MEAN_MOTION_DOT":2.825e-5,"MEAN_MOTION_DDOT":0},{"OBJECT_NAME":"LEMUR-2-GREENBERG","OBJECT_ID":"2017-042N","EPOCH":"2026-03-07T00:55:56.525088","MEAN_MOTION":15.27852187,"ECCENTRICITY":0.0009292,"INCLINATION":97.3773,"RA_OF_ASC_NODE":247.4022,"ARG_OF_PERICENTER":12.9329,"MEAN_ANOMALY":347.2147,"EPHEMERIS_TYPE":0,"CLASSIFICATION_TYPE":"U","NORAD_CAT_ID":42837,"ELEMENT_SET_NO":999,"REV_AT_EPOCH":47277,"BSTAR":0.00079527,"MEAN_MOTION_DOT":0.00021618,"MEAN_MOTION_DDOT":0},{"OBJECT_NAME":"LEMUR-2-ANDIS","OBJECT_ID":"2017-042P","EPOCH":"2026-03-06T11:40:31.429632","MEAN_MOTION":15.30376816,"ECCENTRICITY":0.00092842,"INCLINATION":97.365,"RA_OF_ASC_NODE":246.7461,"ARG_OF_PERICENTER":14.8782,"MEAN_ANOMALY":345.273,"EPHEMERIS_TYPE":0,"CLASSIFICATION_TYPE":"U","NORAD_CAT_ID":42838,"ELEMENT_SET_NO":999,"REV_AT_EPOCH":47272,"BSTAR":0.00090173843,"MEAN_MOTION_DOT":0.00026513,"MEAN_MOTION_DDOT":0},{"OBJECT_NAME":"LEMUR-2-MONSON","OBJECT_ID":"2017-042Q","EPOCH":"2026-03-07T00:49:03.692928","MEAN_MOTION":15.24880241,"ECCENTRICITY":0.0006714,"INCLINATION":97.403,"RA_OF_ASC_NODE":247.5029,"ARG_OF_PERICENTER":2.2404,"MEAN_ANOMALY":357.8863,"EPHEMERIS_TYPE":0,"CLASSIFICATION_TYPE":"U","NORAD_CAT_ID":42839,"ELEMENT_SET_NO":999,"REV_AT_EPOCH":47258,"BSTAR":0.00075344,"MEAN_MOTION_DOT":0.00018703,"MEAN_MOTION_DDOT":0},{"OBJECT_NAME":"LEMUR-2-FURIAUS","OBJECT_ID":"2017-042R","EPOCH":"2026-03-06T22:41:25.714464","MEAN_MOTION":15.26080661,"ECCENTRICITY":0.000764,"INCLINATION":97.3744,"RA_OF_ASC_NODE":245.5228,"ARG_OF_PERICENTER":66.9148,"MEAN_ANOMALY":293.2895,"EPHEMERIS_TYPE":0,"CLASSIFICATION_TYPE":"U","NORAD_CAT_ID":42840,"ELEMENT_SET_NO":999,"REV_AT_EPOCH":47259,"BSTAR":0.0010194,"MEAN_MOTION_DOT":0.0002629,"MEAN_MOTION_DDOT":0},{"OBJECT_NAME":"LEMUR-2-PETERG","OBJECT_ID":"2017-042S","EPOCH":"2026-03-07T01:28:57.651168","MEAN_MOTION":15.29471078,"ECCENTRICITY":0.0003779,"INCLINATION":97.3972,"RA_OF_ASC_NODE":251.2508,"ARG_OF_PERICENTER":351.1685,"MEAN_ANOMALY":8.9488,"EPHEMERIS_TYPE":0,"CLASSIFICATION_TYPE":"U","NORAD_CAT_ID":42841,"ELEMENT_SET_NO":999,"REV_AT_EPOCH":47280,"BSTAR":0.00079305,"MEAN_MOTION_DOT":0.00022631,"MEAN_MOTION_DDOT":0},{"OBJECT_NAME":"LEMUR-2-DEMBITZ","OBJECT_ID":"2017-042T","EPOCH":"2026-03-06T23:37:49.155744","MEAN_MOTION":15.26813008,"ECCENTRICITY":0.0007063,"INCLINATION":97.3801,"RA_OF_ASC_NODE":248.4619,"ARG_OF_PERICENTER":25.7278,"MEAN_ANOMALY":334.4311,"EPHEMERIS_TYPE":0,"CLASSIFICATION_TYPE":"U","NORAD_CAT_ID":42842,"ELEMENT_SET_NO":999,"REV_AT_EPOCH":47273,"BSTAR":0.00077762,"MEAN_MOTION_DOT":0.00020467,"MEAN_MOTION_DDOT":0},{"OBJECT_NAME":"LEMUR-2-ZACHARY","OBJECT_ID":"2017-042W","EPOCH":"2026-03-06T23:47:48.174720","MEAN_MOTION":15.41787303,"ECCENTRICITY":0.0003757,"INCLINATION":97.3654,"RA_OF_ASC_NODE":256.0601,"ARG_OF_PERICENTER":26.6218,"MEAN_ANOMALY":333.5221,"EPHEMERIS_TYPE":0,"CLASSIFICATION_TYPE":"U","NORAD_CAT_ID":42845,"ELEMENT_SET_NO":999,"REV_AT_EPOCH":47341,"BSTAR":0.0012609,"MEAN_MOTION_DOT":0.00053593,"MEAN_MOTION_DDOT":0},{"OBJECT_NAME":"LEMUR-2-JIN-LUEN","OBJECT_ID":"2018-014C","EPOCH":"2026-03-06T20:58:19.274880","MEAN_MOTION":15.77518952,"ECCENTRICITY":0.0002385,"INCLINATION":97.5452,"RA_OF_ASC_NODE":355.8878,"ARG_OF_PERICENTER":139.1593,"MEAN_ANOMALY":220.9852,"EPHEMERIS_TYPE":0,"CLASSIFICATION_TYPE":"U","NORAD_CAT_ID":43182,"ELEMENT_SET_NO":999,"REV_AT_EPOCH":44502,"BSTAR":0.0012652,"MEAN_MOTION_DOT":0.00214135,"MEAN_MOTION_DDOT":0},{"OBJECT_NAME":"LEMUR-2-KADI","OBJECT_ID":"2018-014E","EPOCH":"2026-03-06T20:28:58.698624","MEAN_MOTION":15.63478714,"ECCENTRICITY":7.86e-5,"INCLINATION":97.4711,"RA_OF_ASC_NODE":350.3612,"ARG_OF_PERICENTER":96.7208,"MEAN_ANOMALY":263.414,"EPHEMERIS_TYPE":0,"CLASSIFICATION_TYPE":"U","NORAD_CAT_ID":43184,"ELEMENT_SET_NO":999,"REV_AT_EPOCH":44494,"BSTAR":0.0010634,"MEAN_MOTION_DOT":0.00099116,"MEAN_MOTION_DDOT":0},{"OBJECT_NAME":"LEMUR-2-AMANDA-SVANTE","OBJECT_ID":"2021-034B","EPOCH":"2026-03-07T03:46:51.202848","MEAN_MOTION":15.28260417,"ECCENTRICITY":0.000239,"INCLINATION":97.5828,"RA_OF_ASC_NODE":142.1958,"ARG_OF_PERICENTER":214.3504,"MEAN_ANOMALY":145.7581,"EPHEMERIS_TYPE":0,"CLASSIFICATION_TYPE":"U","NORAD_CAT_ID":48269,"ELEMENT_SET_NO":999,"REV_AT_EPOCH":26544,"BSTAR":0.001141,"MEAN_MOTION_DOT":0.00031441,"MEAN_MOTION_DDOT":0},{"OBJECT_NAME":"LEMUR-2-SPECIAL-K","OBJECT_ID":"2021-034F","EPOCH":"2026-03-07T04:34:38.926848","MEAN_MOTION":15.44921568,"ECCENTRICITY":0.0001575,"INCLINATION":97.5711,"RA_OF_ASC_NODE":147.394,"ARG_OF_PERICENTER":219.3357,"MEAN_ANOMALY":140.7777,"EPHEMERIS_TYPE":0,"CLASSIFICATION_TYPE":"U","NORAD_CAT_ID":48273,"ELEMENT_SET_NO":999,"REV_AT_EPOCH":26585,"BSTAR":0.0017024,"MEAN_MOTION_DOT":0.00080683,"MEAN_MOTION_DDOT":0},{"OBJECT_NAME":"LEMUR-2-EMBRIONOVIS","OBJECT_ID":"2023-084AQ","EPOCH":"2026-03-06T22:22:46.714368","MEAN_MOTION":15.34586571,"ECCENTRICITY":0.0008474,"INCLINATION":97.6127,"RA_OF_ASC_NODE":206.5242,"ARG_OF_PERICENTER":323.5835,"MEAN_ANOMALY":36.483,"EPHEMERIS_TYPE":0,"CLASSIFICATION_TYPE":"U","NORAD_CAT_ID":56970,"ELEMENT_SET_NO":999,"REV_AT_EPOCH":15198,"BSTAR":0.00029685,"MEAN_MOTION_DOT":9.876e-5,"MEAN_MOTION_DDOT":0},{"OBJECT_NAME":"LEMUR-2-MANO","OBJECT_ID":"2023-100E","EPOCH":"2026-03-07T00:10:39.739296","MEAN_MOTION":15.5990361,"ECCENTRICITY":0.0001373,"INCLINATION":99.4549,"RA_OF_ASC_NODE":87.6496,"ARG_OF_PERICENTER":68.0046,"MEAN_ANOMALY":292.135,"EPHEMERIS_TYPE":0,"CLASSIFICATION_TYPE":"U","NORAD_CAT_ID":57390,"ELEMENT_SET_NO":999,"REV_AT_EPOCH":14606,"BSTAR":0.0017189,"MEAN_MOTION_DOT":0.00140474,"MEAN_MOTION_DDOT":0},{"OBJECT_NAME":"LEMUR-2-DEVERILL-M-T","OBJECT_ID":"2023-100F","EPOCH":"2026-03-06T23:27:05.217408","MEAN_MOTION":15.34552459,"ECCENTRICITY":0.0008343,"INCLINATION":99.4579,"RA_OF_ASC_NODE":75.6543,"ARG_OF_PERICENTER":35.9502,"MEAN_ANOMALY":324.2295,"EPHEMERIS_TYPE":0,"CLASSIFICATION_TYPE":"U","NORAD_CAT_ID":57391,"ELEMENT_SET_NO":999,"REV_AT_EPOCH":14554,"BSTAR":0.00093895,"MEAN_MOTION_DOT":0.00031457,"MEAN_MOTION_DDOT":0},{"OBJECT_NAME":"LEMUR-2-BASS","OBJECT_ID":"2023-174D","EPOCH":"2026-03-07T03:50:55.669920","MEAN_MOTION":15.39645207,"ECCENTRICITY":0.0008068,"INCLINATION":97.3883,"RA_OF_ASC_NODE":149.7008,"ARG_OF_PERICENTER":171.0394,"MEAN_ANOMALY":189.0997,"EPHEMERIS_TYPE":0,"CLASSIFICATION_TYPE":"U","NORAD_CAT_ID":58259,"ELEMENT_SET_NO":999,"REV_AT_EPOCH":12964,"BSTAR":0.00050618,"MEAN_MOTION_DOT":0.00019926,"MEAN_MOTION_DDOT":0}]
